#aV2015 11 12  0  0  0.00000000     288 DD+AD WGS84 FIT  NGA
## 1870 345600.00000000   300.00000000 57338 0.0000000000000
+   30     1  2  3  5  6  7  8  9 11 12 13 14 15 16 17 18 19
+         20 21 22 23 24 25 26 27 28 29 30 31 32  0  0  0  0
+          0  0  0  0  0  0  0  0  0  0  0  0  0  0  0  0  0
+          0  0  0  0  0  0  0  0  0  0  0  0  0  0  0  0  0
+          0  0  0  0  0  0  0  0  0  0  0  0  0  0  0  0  0
++         2  2  2  2  2  2  2  2  2  2  2  2  2  2  2  2  2
++         2  2  2  2  2  2  2  2  2  2  2  2  2  0  0  0  0
++         0  0  0  0  0  0  0  0  0  0  0  0  0  0  0  0  0
++         0  0  0  0  0  0  0  0  0  0  0  0  0  0  0  0  0
++         0  0  0  0  0  0  0  0  0  0  0  0  0  0  0  0  0
%c cc cc ccc ccc cccc cccc cccc cccc ccccc ccccc ccccc ccccc
%c cc cc ccc ccc cccc cccc cccc cccc ccccc ccccc ccccc ccccc
%f  0.0000000  0.000000000  0.00000000000  0.000000000000000
%f  0.0000000  0.000000000  0.00000000000  0.000000000000000
%i    0    0    0    0      0      0      0      0         0
%i    0    0    0    0      0      0      0      0         0
/*      NGA, ST. LOUIS,MO.                                  
/*   EPHEMERIS COMPUTED FROM 2 DAYS OF DATA                 
/*   EPOCHA v2.4 SMOOTHER                                   
/*   G1762 IERS2010 SATAF SATAPC                            
*  2015 11 12  3 25  0.00000000
P  1 -21615.178557 -13975.708554  -7044.774208      4.276739                    
V  1   9069.901018   1020.646240 -29971.904016      0.008075                    
P  2   1085.302728  16689.590206  21100.525634    595.543723                    
V  2 -24592.990552  -8119.471228   7400.799579      0.009900                    
P  3 -12851.425385 -18316.990733  14295.632466     14.358895                    
V  3   -509.056166 -18284.727984 -23908.896023     -0.032805                    
P  5   1686.991419  26178.654084   3348.430488   -175.625335                    
V  5  -4053.170011  -3779.954192  31172.684552      0.038210                    
P  6 -12897.918285  10446.351889  20729.711397     93.537577                    
V  6 -24194.611252 -10413.401279  -9814.897262      0.067440                    
P  7 -25134.775471  -4957.220123  -7605.470184    480.589818                    
V  7  -8120.759435  -5757.258435  29698.475151     -0.010175                    
P  8  -5572.243781 -14665.051674 -21383.445325    -12.159557                    
V  8  21585.337641 -16664.757651   5782.304889     -0.014400                    
P  9 -21764.965292   4283.818778  14605.965100      9.107516                    
V  9  13108.966050 -13332.036375  23416.418132      0.057075                    
P 11 -18981.296785 -12141.437832 -14669.251771   -615.643920                    
V 11  17951.836111  -2938.083247 -21545.549920     -0.021387                    
P 12  10368.667993  21015.027441  12599.025939    344.669016                    
V 12    148.731830  16105.120650 -26555.048505      0.031459                    
P 13  -4843.447026  18205.056576 -18897.461159   -163.624157                    
V 13 -20658.342786  11566.426191  16456.707222     -0.027745                    
P 14  21941.564977 -14818.705031    -42.882410     22.258375                    
V 14   1271.426266   2513.897790 -31963.594227     -0.023966                    
P 15   8692.172141  13408.523929 -21300.485019   -281.686754                    
V 15 -20491.431327  17490.705017   3001.768003     -0.019501                    
P 16    371.935694 -26079.731534   3715.368959    -67.410811                    
V 16   2531.649950   4670.151259  32194.474048      0.036362                    
P 17 -21467.373167  15431.984690   -120.661481   -193.741801                    
V 17  -1078.375119  -2392.555315 -32199.998209     -0.010983                    
P 18  15801.465615   -814.378637 -20837.270385    452.067491                    
V 18   4614.843794  27395.330804   2094.947046      0.037768                    
P 19 -22161.977742   2168.157912 -15047.837762   -522.655900                    
V 19  14707.850426 -11312.795598 -23222.932780     -0.004496                    
P 20  13373.793222  19957.203924 -11406.291396    370.305948                    
V 20    -24.398822  14727.475658  26176.075599      0.028946                    
P 21  24554.922216   1448.344911  -9695.426103   -492.879722                    
V 21  11355.149537   7594.410919  27535.913546     -0.024370                    
P 22  11067.679765 -15769.110684 -17974.547905    409.701007                    
V 22   6241.371921  22766.845503 -16098.469148      0.037321                    
P 23 -14923.250136  -7378.615946  20945.545019   -143.959595                    
V 23  20128.261335 -16736.050422   8082.835592     -0.020494                    
P 24  19981.169358  14778.094777  -9642.282196     -7.839247                    
V 24 -12316.106087  -1758.811115 -28150.489645     -0.005602                    
P 25  14976.197405   8458.587485  20187.173865    -66.164080                    
V 25   2937.585480  25602.133088 -12677.658951     -0.057357                    
P 26   5991.705911 -22201.138541  13280.628763   -119.133713                    
V 26   4778.851726  16330.946136  25163.651409     -0.152562                    
P 27   5866.887107 -19571.374103 -16925.859353     35.172705                    
V 27  17814.772369 -12106.090462  20325.496680      0.031813                    
P 28 -12104.722049  11994.007780 -19721.320917    480.833276                    
V 28  -2947.420865 -26254.576117 -13799.993745      0.025835                    
P 29  20700.012879   -885.480492  16612.600698    644.021474                    
V 29 -16265.309366  13447.517652  21035.847565      0.017139                    
P 30 -20421.989459   3331.557640 -16696.341143     55.561900                    
V 30 -18288.830088 -10867.852957  20119.273286      0.056862                    
P 31  12237.234335 -10496.848626  21297.047307    295.616977                    
V 31  24262.892701  11007.892233  -8227.304937     -0.014498                    
P 32  -5256.144306 -25866.056017   4861.461342     14.223774                    
V 32   2308.494225  -6340.541105 -30298.639708      0.118060                    
EOF
